start=new Date('2022-02-07T00:00:00.000Z').valueOf();
sats=[{"OBJECT_ID":"2021-041AE","CENTER_NAME":"EARTH","MEAN_ELEMENT_THEORY":"SGP4","DECAY_DATE":null,"INCLINATION":"53.0591","LAUNCH_DATE":"2021-05-15","BSTAR":"-0.00141410000000","MEAN_MOTION":"15.06390692","NORAD_CAT_ID":"48581","SEMIMAJOR_AXIS":"6925.377","REF_FRAME":"TEME","GP_ID":"195419374","CLASSIFICATION_TYPE":"U","MEAN_ANOMALY":"34.5968","ELEMENT_SET_NO":"999","TIME_SYSTEM":"UTC","PERIAPSIS":"545.964","ECCENTRICITY":"0.00018460","RCS_SIZE":"LARGE","RA_OF_ASC_NODE":"313.4336","FILE":"3293698","OBJECT_NAME":"STARLINK-2235","SITE":"AFETR","MEAN_MOTION_DOT":"-0.00021277","OBJECT_TYPE":"PAYLOAD","APOAPSIS":"548.521","EPHEMERIS_TYPE":"0","TLE_LINE2":"2 48581  53.0591 313.4336 0001846  64.7128  34.5968 15.06390692 41305","EPOCH":"2022-02-06T22:00:00.999936","MEAN_MOTION_DDOT":"0.0000000000000","REV_AT_EPOCH":"4130","TLE_LINE1":"1 48581U 21041AE  22037.91667824 -.00021277  00000-0 -14141-2 0  9995","COUNTRY_CODE":"US","PERIOD":"95.593","ARG_OF_PERICENTER":"64.7128"},{"DECAY_DATE":null,"MEAN_MOTION":"15.06366128","LAUNCH_DATE":"2021-05-15","BSTAR":"-0.00121690000000","INCLINATION":"53.0538","OBJECT_ID":"2021-041AF","CENTER_NAME":"EARTH","MEAN_ELEMENT_THEORY":"SGP4","MEAN_ANOMALY":"217.0818","ELEMENT_SET_NO":"999","PERIAPSIS":"546.202","TIME_SYSTEM":"UTC","SEMIMAJOR_AXIS":"6925.452","NORAD_CAT_ID":"48582","CLASSIFICATION_TYPE":"U","REF_FRAME":"TEME","GP_ID":"195419437","RCS_SIZE":"LARGE","RA_OF_ASC_NODE":"313.4425","FILE":"3293702","MEAN_MOTION_DOT":"-0.00018344","SITE":"AFETR","OBJECT_NAME":"STARLINK-2236","ECCENTRICITY":"0.00016110","REV_AT_EPOCH":"4130","MEAN_MOTION_DDOT":"0.0000000000000","TLE_LINE1":"1 48582U 21041AF  22037.91667824 -.00018344  00000-0 -12169-2 0  9995","COUNTRY_CODE":"US","PERIOD":"95.594","ARG_OF_PERICENTER":"62.2395","OBJECT_TYPE":"PAYLOAD","APOAPSIS":"548.433","EPOCH":"2022-02-06T22:00:00.999936","TLE_LINE2":"2 48582  53.0538 313.4425 0001611  62.2395 217.0818 15.06366128 41304","EPHEMERIS_TYPE":"0"},{"MEAN_MOTION_DDOT":"0.0000000000000","REV_AT_EPOCH":"4021","COUNTRY_CODE":"US","TLE_LINE1":"1 48583U 21041AG  22037.88598054 -.00001803  00000-0 -10224-3 0  9993","PERIOD":"95.593","ARG_OF_PERICENTER":"74.6139","OBJECT_TYPE":"PAYLOAD","APOAPSIS":"548.370","EPHEMERIS_TYPE":"0","TLE_LINE2":"2 48583  53.0544 358.6001 0001587  74.6139 285.5026 15.06381369 40212","EPOCH":"2022-02-06T21:15:48.718656","RCS_SIZE":"LARGE","RA_OF_ASC_NODE":"358.6001","FILE":"3293822","OBJECT_NAME":"STARLINK-2237","SITE":"AFETR","MEAN_MOTION_DOT":"-0.00001803","ECCENTRICITY":"0.00015870","MEAN_ANOMALY":"285.5026","ELEMENT_SET_NO":"999","TIME_SYSTEM":"UTC","PERIAPSIS":"546.172","NORAD_CAT_ID":"48583","SEMIMAJOR_AXIS":"6925.406","REF_FRAME":"TEME","GP_ID":"195445861","CLASSIFICATION_TYPE":"U","DECAY_DATE":null,"BSTAR":"-0.00010224000000","LAUNCH_DATE":"2021-05-15","INCLINATION":"53.0544","MEAN_MOTION":"15.06381369","OBJECT_ID":"2021-041AG","MEAN_ELEMENT_THEORY":"SGP4","CENTER_NAME":"EARTH"},{"MEAN_ANOMALY":"293.5455","ELEMENT_SET_NO":"999","PERIAPSIS":"546.129","TIME_SYSTEM":"UTC","SEMIMAJOR_AXIS":"6925.315","NORAD_CAT_ID":"48584","CLASSIFICATION_TYPE":"U","GP_ID":"195444609","REF_FRAME":"TEME","DECAY_DATE":null,"MEAN_MOTION":"15.06411059","LAUNCH_DATE":"2021-05-15","INCLINATION":"53.0560","BSTAR":"0.00001919100000","OBJECT_ID":"2021-041AH","CENTER_NAME":"EARTH","MEAN_ELEMENT_THEORY":"SGP4","REV_AT_EPOCH":"4016","MEAN_MOTION_DDOT":"0.0000000000000","TLE_LINE1":"1 48584U 21041AH  22037.59477301  .00000004  00000-0  19191-4 0  9996","COUNTRY_CODE":"US","PERIOD":"95.591","ARG_OF_PERICENTER":"66.5693","OBJECT_TYPE":"PAYLOAD","APOAPSIS":"548.230","TLE_LINE2":"2 48584  53.0560 359.8997 0001517  66.5693 293.5455 15.06411059 40165","EPOCH":"2022-02-06T14:16:28.388064","EPHEMERIS_TYPE":"0","RCS_SIZE":"LARGE","RA_OF_ASC_NODE":"359.8997","FILE":"3293822","SITE":"AFETR","MEAN_MOTION_DOT":"0.00000004","OBJECT_NAME":"STARLINK-2238","ECCENTRICITY":"0.00015170"},{"DECAY_DATE":null,"MEAN_MOTION":"15.06380621","LAUNCH_DATE":"2021-05-15","INCLINATION":"53.0569","BSTAR":"-0.00019527000000","OBJECT_ID":"2021-041AJ","MEAN_ELEMENT_THEORY":"SGP4","CENTER_NAME":"EARTH","PERIAPSIS":"546.133","TIME_SYSTEM":"UTC","MEAN_ANOMALY":"298.7167","ELEMENT_SET_NO":"999","SEMIMAJOR_AXIS":"6925.408","NORAD_CAT_ID":"48585","CLASSIFICATION_TYPE":"U","REF_FRAME":"TEME","GP_ID":"195444859","FILE":"3293822","OBJECT_NAME":"STARLINK-2240","SITE":"AFETR","MEAN_MOTION_DOT":"-0.00003187","RCS_SIZE":"LARGE","RA_OF_ASC_NODE":"358.6587","ECCENTRICITY":"0.00016460","ARG_OF_PERICENTER":"61.3987","PERIOD":"95.593","REV_AT_EPOCH":"4020","MEAN_MOTION_DDOT":"0.0000000000000","TLE_LINE1":"1 48585U 21041AJ  22037.87124271 -.00003187  00000-0 -19527-3 0  9992","COUNTRY_CODE":"US","APOAPSIS":"548.413","TLE_LINE2":"2 48585  53.0569 358.6587 0001646  61.3987 298.7167 15.06380621 40201","EPOCH":"2022-02-06T20:54:35.370144","EPHEMERIS_TYPE":"0","OBJECT_TYPE":"PAYLOAD"},{"TIME_SYSTEM":"UTC","PERIAPSIS":"546.233","ELEMENT_SET_NO":"999","MEAN_ANOMALY":"295.0001","CLASSIFICATION_TYPE":"U","REF_FRAME":"TEME","GP_ID":"195445611","SEMIMAJOR_AXIS":"6925.413","NORAD_CAT_ID":"48586","MEAN_MOTION":"15.06379129","INCLINATION":"53.0571","LAUNCH_DATE":"2021-05-15","BSTAR":"-0.00020169000000","DECAY_DATE":null,"MEAN_ELEMENT_THEORY":"SGP4","OBJECT_ID":"2021-041AK","CENTER_NAME":"EARTH","PERIOD":"95.593","ARG_OF_PERICENTER":"65.1144","COUNTRY_CODE":"US","TLE_LINE1":"1 48586U 21041AK  22037.86387167 -.00003283  00000-0 -20169-3 0  9998","REV_AT_EPOCH":"4020","MEAN_MOTION_DDOT":"0.0000000000000","TLE_LINE2":"2 48586  53.0571 358.6892 0001508  65.1144 295.0001 15.06379129 40206","EPOCH":"2022-02-06T20:43:58.512288","EPHEMERIS_TYPE":"0","APOAPSIS":"548.322","OBJECT_TYPE":"PAYLOAD","SITE":"AFETR","OBJECT_NAME":"STARLINK-2241","MEAN_MOTION_DOT":"-0.00003283","FILE":"3293822","RA_OF_ASC_NODE":"358.6892","RCS_SIZE":"LARGE","ECCENTRICITY":"0.00015080"},{"GP_ID":"195445362","REF_FRAME":"TEME","CLASSIFICATION_TYPE":"U","NORAD_CAT_ID":"48587","SEMIMAJOR_AXIS":"6922.749","PERIAPSIS":"543.553","TIME_SYSTEM":"UTC","ELEMENT_SET_NO":"999","MEAN_ANOMALY":"291.8775","MEAN_ELEMENT_THEORY":"SGP4","OBJECT_ID":"2021-041AL","CENTER_NAME":"EARTH","INCLINATION":"53.0552","LAUNCH_DATE":"2021-05-15","BSTAR":"0.00119510000000","MEAN_MOTION":"15.07248549","DECAY_DATE":null,"EPHEMERIS_TYPE":"0","EPOCH":"2022-02-06T14:29:45.269952","TLE_LINE2":"2 48587  53.0552 359.8464 0001533  68.2377 291.8775 15.07248549 40163","APOAPSIS":"545.675","OBJECT_TYPE":"PAYLOAD","PERIOD":"95.538","ARG_OF_PERICENTER":"68.2377","COUNTRY_CODE":"US","TLE_LINE1":"1 48587U 21041AL  22037.60399618  .00017978  00000-0  11951-2 0  9997","MEAN_MOTION_DDOT":"0.0000000000000","REV_AT_EPOCH":"4016","ECCENTRICITY":"0.00015330","SITE":"AFETR","OBJECT_NAME":"STARLINK-2242","MEAN_MOTION_DOT":"0.00017978","FILE":"3293822","RA_OF_ASC_NODE":"359.8464","RCS_SIZE":"LARGE"},{"APOAPSIS":"548.062","EPHEMERIS_TYPE":"0","EPOCH":"2022-02-06T20:18:44.849952","TLE_LINE2":"2 48588  53.0557 348.7705 0001188  68.2661 291.8455 15.06391669 40342","OBJECT_TYPE":"PAYLOAD","PERIOD":"95.593","ARG_OF_PERICENTER":"68.2661","MEAN_MOTION_DDOT":"0.0000000000000","REV_AT_EPOCH":"4034","TLE_LINE1":"1 48588U 21041AM  22037.84635243 -.00000638  00000-0 -23964-4 0  9997","COUNTRY_CODE":"US","ECCENTRICITY":"0.00011880","FILE":"3293822","SITE":"AFETR","OBJECT_NAME":"STARLINK-2244","MEAN_MOTION_DOT":"-0.00000638","RCS_SIZE":"LARGE","RA_OF_ASC_NODE":"348.7705","NORAD_CAT_ID":"48588","SEMIMAJOR_AXIS":"6925.374","REF_FRAME":"TEME","GP_ID":"195444110","CLASSIFICATION_TYPE":"U","PERIAPSIS":"546.416","TIME_SYSTEM":"UTC","MEAN_ANOMALY":"291.8455","ELEMENT_SET_NO":"999","CENTER_NAME":"EARTH","OBJECT_ID":"2021-041AM","MEAN_ELEMENT_THEORY":"SGP4","DECAY_DATE":null,"LAUNCH_DATE":"2021-05-15","INCLINATION":"53.0557","BSTAR":"-0.00002396400000","MEAN_MOTION":"15.06391669"},{"OBJECT_ID":"2021-041AN","CENTER_NAME":"EARTH","MEAN_ELEMENT_THEORY":"SGP4","MEAN_MOTION":"15.06375569","LAUNCH_DATE":"2021-05-15","INCLINATION":"53.0554","BSTAR":"-0.00003154400000","DECAY_DATE":null,"CLASSIFICATION_TYPE":"U","GP_ID":"195444360","REF_FRAME":"TEME","SEMIMAJOR_AXIS":"6925.423","NORAD_CAT_ID":"48589","PERIAPSIS":"546.122","TIME_SYSTEM":"UTC","ELEMENT_SET_NO":"999","MEAN_ANOMALY":"285.5370","ECCENTRICITY":"0.00016840","OBJECT_NAME":"STARLINK-2245","SITE":"AFETR","MEAN_MOTION_DOT":"-0.00000751","FILE":"3293822","RA_OF_ASC_NODE":"348.7830","RCS_SIZE":"LARGE","TLE_LINE2":"2 48589  53.0554 348.7830 0001684  74.5805 285.5370 15.06375569 40347","EPOCH":"2022-02-06T20:13:26.491008","EPHEMERIS_TYPE":"0","APOAPSIS":"548.455","OBJECT_TYPE":"PAYLOAD","PERIOD":"95.594","ARG_OF_PERICENTER":"74.5805","COUNTRY_CODE":"US","TLE_LINE1":"1 48589U 21041AN  22037.84266772 -.00000751  00000-0 -31544-4 0  9994","REV_AT_EPOCH":"4034","MEAN_MOTION_DDOT":"0.0000000000000"},{"ECCENTRICITY":"0.00019560","RCS_SIZE":"LARGE","RA_OF_ASC_NODE":"359.8575","FILE":"3293822","OBJECT_NAME":"STARLINK-2246","SITE":"AFETR","MEAN_MOTION_DOT":"0.00220436","OBJECT_TYPE":"PAYLOAD","APOAPSIS":"545.246","EPHEMERIS_TYPE":"0","TLE_LINE2":"2 48590  53.0565 359.8575 0001956  78.7551 281.3658 15.07484451 40161","EPOCH":"2022-02-06T14:25:58.515744","MEAN_MOTION_DDOT":"0.0000000000000","REV_AT_EPOCH":"4016","COUNTRY_CODE":"US","TLE_LINE1":"1 48590U 21041AP  22037.60137171  .00220436  00000-0  13947-1 0  9996","PERIOD":"95.523","ARG_OF_PERICENTER":"78.7551","CENTER_NAME":"EARTH","OBJECT_ID":"2021-041AP","MEAN_ELEMENT_THEORY":"SGP4","DECAY_DATE":null,"INCLINATION":"53.0565","LAUNCH_DATE":"2021-05-15","BSTAR":"0.01394700000000","MEAN_MOTION":"15.07484451","NORAD_CAT_ID":"48590","SEMIMAJOR_AXIS":"6922.027","GP_ID":"195445112","REF_FRAME":"TEME","CLASSIFICATION_TYPE":"U","MEAN_ANOMALY":"281.3658","ELEMENT_SET_NO":"999","TIME_SYSTEM":"UTC","PERIAPSIS":"542.538"}];
